[Satellite]
VERSION=1.1
NAME=STARLINK-1320
NICKNAME=STARLINK-1320
TLE1=1 45572U 20025AT  20141.58334491 -.00020242  00000-0 -21535-3 0  9998
TLE2=2 45572  52.9997 262.0703 0001298  62.3373 296.0956 15.62802869  1779
STATUS=0
